{
  "type": "FeatureCollection",
  "features": [
    {
      "type": "Feature",
      "properties": {
        "norad_id": 36036,
        "name": "SMOS",
        "group": "resource",
        "lat": -32.9984549362969,
        "lon": 172.5120528112975,
        "alt_km": 765.8469088429974,
        "timestamp": "2025-12-07T20:38:13.734215+00:00",
        "meta_object_name": "SMOS",
        "meta_object_id": "2009-059A",
        "meta_epoch": "2025-12-07T05:46:49.980000",
        "meta_mean_motion": 14.39733927,
        "meta_eccentricity": 0.00011348,
        "meta_inclination": 98.4385,
        "meta_ra_of_asc_node": 166.3706,
        "meta_arg_of_pericenter": 84.9916,
        "meta_mean_anomaly": 275.1402,
        "meta_ephemeris_type": 0,
        "meta_classification_type": "U",
        "meta_norad_cat_id": 36036,
        "meta_element_set_no": 999,
        "meta_rev_at_epoch": 84583,
        "meta_bstar": 0.00024983742,
        "meta_mean_motion_dot": 7.39e-06,
        "meta_mean_motion_ddot": 0,
        "tle_line1": "1 36036U 09059A   25341.24085625  .00000739  00000+0  24984-3 0  9996",
        "tle_line2": "2 36036  98.4385 166.3706 0001134  84.9916 275.1402 14.39733927845839"
      },
      "geometry": {
        "type": "Point",
        "coordinates": [
          172.5120528112975,
          -32.9984549362969
        ]
      }
    },
    {
      "type": "Feature",
      "properties": {
        "norad_id": 36110,
        "name": "YAOGAN-7",
        "group": "resource",
        "lat": -24.958782741376734,
        "lon": 39.866419709555444,
        "alt_km": 642.9410365154054,
        "timestamp": "2025-12-07T20:38:13.734225+00:00",
        "meta_object_name": "YAOGAN-7",
        "meta_object_id": "2009-069A",
        "meta_epoch": "2025-12-07T03:27:30.417120",
        "meta_mean_motion": 14.77719456,
        "meta_eccentricity": 0.00235706,
        "meta_inclination": 98.0304,
        "meta_ra_of_asc_node": 222.9209,
        "meta_arg_of_pericenter": 300.3256,
        "meta_mean_anomaly": 59.5623,
        "meta_ephemeris_type": 0,
        "meta_classification_type": "U",
        "meta_norad_cat_id": 36110,
        "meta_element_set_no": 999,
        "meta_rev_at_epoch": 86126,
        "meta_bstar": 0.0001836924,
        "meta_mean_motion_dot": 1.269e-05,
        "meta_mean_motion_ddot": 0,
        "tle_line1": "1 36110U 09069A   25341.14410205  .00001269  00000+0  18369-3 0  9994",
        "tle_line2": "2 36110  98.0304 222.9209 0023570 300.3256  59.5623 14.77719456861263"
      },
      "geometry": {
        "type": "Point",
        "coordinates": [
          39.866419709555444,
          -24.958782741376734
        ]
      }
    },
    {
      "type": "Feature",
      "properties": {
        "norad_id": 36605,
        "name": "TANDEM-X",
        "group": "resource",
        "lat": 80.82796356887641,
        "lon": -66.77209878942523,
        "alt_km": 499.537511843002,
        "timestamp": "2025-12-07T20:38:13.734235+00:00",
        "meta_object_name": "TANDEM-X",
        "meta_object_id": "2010-030A",
        "meta_epoch": "2025-12-06T14:13:48.617184",
        "meta_mean_motion": 15.19146828,
        "meta_eccentricity": 0.00021111,
        "meta_inclination": 97.4449,
        "meta_ra_of_asc_node": 346.063,
        "meta_arg_of_pericenter": 96.3345,
        "meta_mean_anomaly": 263.813,
        "meta_ephemeris_type": 0,
        "meta_classification_type": "U",
        "meta_norad_cat_id": 36605,
        "meta_element_set_no": 999,
        "meta_rev_at_epoch": 85740,
        "meta_bstar": 0.00017045926,
        "meta_mean_motion_dot": 3.514e-05,
        "meta_mean_motion_ddot": 0,
        "tle_line1": "1 36605U 10030A   25340.59292381  .00003514  00000+0  17046-3 0  9990",
        "tle_line2": "2 36605  97.4449 346.0630 0002111  96.3345 263.8130 15.19146828857408"
      },
      "geometry": {
        "type": "Point",
        "coordinates": [
          -66.77209878942523,
          80.82796356887641
        ]
      }
    },
    {
      "type": "Feature",
      "properties": {
        "norad_id": 36795,
        "name": "CARTOSAT-2B",
        "group": "resource",
        "lat": 64.10531833248874,
        "lon": -132.58062986812152,
        "alt_km": 618.595799966186,
        "timestamp": "2025-12-07T20:38:13.734246+00:00",
        "meta_object_name": "CARTOSAT-2B",
        "meta_object_id": "2010-035A",
        "meta_epoch": "2025-12-07T07:07:46.099776",
        "meta_mean_motion": 14.78777105,
        "meta_eccentricity": 0.00129075,
        "meta_inclination": 97.786,
        "meta_ra_of_asc_node": 30.5042,
        "meta_arg_of_pericenter": 93.6726,
        "meta_mean_anomaly": 266.5962,
        "meta_ephemeris_type": 0,
        "meta_classification_type": "U",
        "meta_norad_cat_id": 36795,
        "meta_element_set_no": 999,
        "meta_rev_at_epoch": 83149,
        "meta_bstar": 0.00020504491,
        "meta_mean_motion_dot": 1.459e-05,
        "meta_mean_motion_ddot": 0,
        "tle_line1": "1 36795U 10035A   25341.29706134  .00001459  00000+0  20504-3 0  9998",
        "tle_line2": "2 36795  97.7860  30.5042 0012907  93.6726 266.5962 14.78777105831493"
      },
      "geometry": {
        "type": "Point",
        "coordinates": [
          -132.58062986812152,
          64.10531833248874
        ]
      }
    },
    {
      "type": "Feature",
      "properties": {
        "norad_id": 36834,
        "name": "YAOGAN-10",
        "group": "resource",
        "lat": 81.67106089781014,
        "lon": -106.442813541887,
        "alt_km": 606.4102221429875,
        "timestamp": "2025-12-07T20:38:13.734256+00:00",
        "meta_object_name": "YAOGAN-10",
        "meta_object_id": "2010-038A",
        "meta_epoch": "2025-12-07T07:49:35.502240",
        "meta_mean_motion": 14.84576739,
        "meta_eccentricity": 0.00015069,
        "meta_inclination": 97.9142,
        "meta_ra_of_asc_node": 1.1872,
        "meta_arg_of_pericenter": 85.0677,
        "meta_mean_anomaly": 36.5004,
        "meta_ephemeris_type": 0,
        "meta_classification_type": "U",
        "meta_norad_cat_id": 36834,
        "meta_element_set_no": 999,
        "meta_rev_at_epoch": 82873,
        "meta_bstar": 0.00038137364,
        "meta_mean_motion_dot": 3.166e-05,
        "meta_mean_motion_ddot": 0,
        "tle_line1": "1 36834U 10038A   25341.32610535  .00003166  00000+0  38137-3 0  9996",
        "tle_line2": "2 36834  97.9142   1.1872 0001506  85.0677  36.5004 14.84576739828732"
      },
      "geometry": {
        "type": "Point",
        "coordinates": [
          -106.442813541887,
          81.67106089781014
        ]
      }
    },
    {
      "type": "Feature",
      "properties": {
        "norad_id": 37216,
        "name": "COSMO-SKYMED 4",
        "group": "resource",
        "lat": 57.44554773529161,
        "lon": 150.72486701818787,
        "alt_km": 616.1233482221205,
        "timestamp": "2025-12-07T20:38:13.734266+00:00",
        "meta_object_name": "COSMO-SKYMED 4",
        "meta_object_id": "2010-060A",
        "meta_epoch": "2025-12-07T07:24:46.949472",
        "meta_mean_motion": 14.8215862,
        "meta_eccentricity": 0.00013629,
        "meta_inclination": 97.8813,
        "meta_ra_of_asc_node": 162.7141,
        "meta_arg_of_pericenter": 82.955,
        "meta_mean_anomaly": 277.1818,
        "meta_ephemeris_type": 0,
        "meta_classification_type": "U",
        "meta_norad_cat_id": 37216,
        "meta_element_set_no": 999,
        "meta_rev_at_epoch": 81614,
        "meta_bstar": 0.00014436387,
        "meta_mean_motion_dot": 1.097e-05,
        "meta_mean_motion_ddot": 0,
        "tle_line1": "1 37216U 10060A   25341.30887673  .00001097  00000+0  14436-3 0  9990",
        "tle_line2": "2 37216  97.8813 162.7141 0001362  82.9550 277.1818 14.82158620816141"
      },
      "geometry": {
        "type": "Point",
        "coordinates": [
          150.72486701818787,
          57.44554773529161
        ]
      }
    },
    {
      "type": "Feature",
      "properties": {
        "norad_id": 37387,
        "name": "RESOURCESAT-2",
        "group": "resource",
        "lat": 5.279624862506025,
        "lon": 44.614343997731986,
        "alt_km": 819.0571086957698,
        "timestamp": "2025-12-07T20:38:13.734276+00:00",
        "meta_object_name": "RESOURCESAT-2",
        "meta_object_id": "2011-015A",
        "meta_epoch": "2025-12-07T07:05:54.750048",
        "meta_mean_motion": 14.21594027,
        "meta_eccentricity": 0.00066598,
        "meta_inclination": 98.7884,
        "meta_ra_of_asc_node": 44.8719,
        "meta_arg_of_pericenter": 56.6946,
        "meta_mean_anomaly": 303.4868,
        "meta_ephemeris_type": 0,
        "meta_classification_type": "U",
        "meta_norad_cat_id": 37387,
        "meta_element_set_no": 999,
        "meta_rev_at_epoch": 75891,
        "meta_bstar": 0.00016284407,
        "meta_mean_motion_dot": 3.13e-06,
        "meta_mean_motion_ddot": 0,
        "tle_line1": "1 37387U 11015A   25341.29577257  .00000313  00000+0  16284-3 0  9995",
        "tle_line2": "2 37387  98.7884  44.8719 0006659  56.6946 303.4868 14.21594027758916"
      },
      "geometry": {
        "type": "Point",
        "coordinates": [
          44.614343997731986,
          5.279624862506025
        ]
      }
    }
  ]
}